CTC2_L_00066001-01
1 10000U 25482MB  26075.70041667  .00000000  00000+0  00000-0 0  9992
2 10000  80.0000   0.0000 0000000   0.0000   0.0000 15.38683946    15
CTC2_L_00066001-02
1 10001U 22546DY  26075.70041667  .00000000  00000+0  00000-0 0  9991
2 10001  80.0000   0.0000 0000000   0.0000  90.0000 15.38683946    15
CTC2_L_00066001-03
1 10002U 24364SN  26075.70041667  .00000000  00000+0  00000-0 0  9992
2 10002  80.0000   0.0000 0000000   0.0000 180.0000 15.38683946    16
CTC2_L_00066001-04
1 10003U 24322XF  26075.70041667  .00000000  00000+0  00000-0 0  9997
2 10003  80.0000   0.0000 0000000   0.0000 270.0000 15.38683946    17
CTC2_L_00066002-01
1 10004U 25398NF  26075.70041667  .00000000  00000+0  00000-0 0  9992
2 10004  80.0000  12.0000 0000000   0.0000  12.0000 15.38683946    15
CTC2_L_00066002-02
1 10005U 23283DT  26075.70041667  .00000000  00000+0  00000-0 0  9994
2 10005  80.0000  12.0000 0000000   0.0000 102.0000 15.38683946    16
CTC2_L_00066002-03
1 10006U 22509HD  26075.70041667  .00000000  00000+0  00000-0 0  9995
2 10006  80.0000  12.0000 0000000   0.0000 192.0000 15.38683946    16
CTC2_L_00066002-04
1 10007U 25232BR  26075.70041667  .00000000  00000+0  00000-0 0  9992
2 10007  80.0000  12.0000 0000000   0.0000 282.0000 15.38683946    17
CTC2_L_00066003-01
1 10008U 25038VF  26075.70041667  .00000000  00000+0  00000-0 0  9997
2 10008  80.0000  24.0000 0000000   0.0000  24.0000 15.38683946    15
CTC2_L_00066003-02
1 10009U 26594QZ  26075.70041667  .00000000  00000+0  00000-0 0  9996
2 10009  80.0000  24.0000 0000000   0.0000 114.0000 15.38683946    16
CTC2_L_00066003-03
1 10010U 22073WE  26075.70041667  .00000000  00000+0  00000-0 0  9996
2 10010  80.0000  24.0000 0000000   0.0000 204.0000 15.38683946    18
CTC2_L_00066003-04
1 10011U 22204TZ  26075.70041667  .00000000  00000+0  00000-0 0  9993
2 10011  80.0000  24.0000 0000000   0.0000 294.0000 15.38683946    18
CTC2_L_00066004-01
1 10012U 22399WY  26075.70041667  .00000000  00000+0  00000-0 0  9999
2 10012  80.0000  36.0000 0000000   0.0000  36.0000 15.38683946    16
CTC2_L_00066004-02
1 10013U 22388NF  26075.70041667  .00000000  00000+0  00000-0 0  9998
2 10013  80.0000  36.0000 0000000   0.0000 126.0000 15.38683946    17
CTC2_L_00066004-03
1 10014U 24513PD  26075.70041667  .00000000  00000+0  00000-0 0  9991
2 10014  80.0000  36.0000 0000000   0.0000 216.0000 15.38683946    18
CTC2_L_00066004-04
1 10015U 24453YR  26075.70041667  .00000000  00000+0  00000-0 0  9995
2 10015  80.0000  36.0000 0000000   0.0000 306.0000 15.38683946    19
CTC2_L_00066005-01
1 10016U 26869XM  26075.70041667  .00000000  00000+0  00000-0 0  9999
2 10016  80.0000  48.0000 0000000   0.0000  48.0000 15.38683946    16
CTC2_L_00066005-02
1 10017U 24675ZB  26075.70041667  .00000000  00000+0  00000-0 0  9993
2 10017  80.0000  48.0000 0000000   0.0000 138.0000 15.38683946    17
CTC2_L_00066005-03
1 10018U 26576IE  26075.70041667  .00000000  00000+0  00000-0 0  9996
2 10018  80.0000  48.0000 0000000   0.0000 228.0000 15.38683946    18
CTC2_L_00066005-04
1 10019U 24514TT  26075.70041667  .00000000  00000+0  00000-0 0  9997
2 10019  80.0000  48.0000 0000000   0.0000 318.0000 15.38683946    19
CTC2_L_00066006-01
1 10020U 26477HG  26075.70041667  .00000000  00000+0  00000-0 0  9999
2 10020  80.0000  60.0000 0000000   0.0000  60.0000 15.38683946    19
CTC2_L_00066006-02
1 10021U 24329WT  26075.70041667  .00000000  00000+0  00000-0 0  9994
2 10021  80.0000  60.0000 0000000   0.0000 150.0000 15.38683946    10
CTC2_L_00066006-03
1 10022U 25021MP  26075.70041667  .00000000  00000+0  00000-0 0  9995
2 10022  80.0000  60.0000 0000000   0.0000 240.0000 15.38683946    11
CTC2_L_00066006-04
1 10023U 22281JS  26075.70041667  .00000000  00000+0  00000-0 0  9991
2 10023  80.0000  60.0000 0000000   0.0000 330.0000 15.38683946    12
CTC2_L_00066007-01
1 10024U 24145OV  26075.70041667  .00000000  00000+0  00000-0 0  9993
2 10024  80.0000  72.0000 0000000   0.0000  72.0000 15.38683946    19
CTC2_L_00066007-02
1 10025U 23423DM  26075.70041667  .00000000  00000+0  00000-0 0  9992
2 10025  80.0000  72.0000 0000000   0.0000 162.0000 15.38683946    10
CTC2_L_00066007-03
1 10026U 22284UX  26075.70041667  .00000000  00000+0  00000-0 0  9997
2 10026  80.0000  72.0000 0000000   0.0000 252.0000 15.38683946    11
CTC2_L_00066007-04
1 10027U 25039IR  26075.70041667  .00000000  00000+0  00000-0 0  9999
2 10027  80.0000  72.0000 0000000   0.0000 342.0000 15.38683946    12
CTC2_L_00066008-01
1 10028U 26013JB  26075.70041667  .00000000  00000+0  00000-0 0  9993
2 10028  80.0000  84.0000 0000000   0.0000  84.0000 15.38683946    19
CTC2_L_00066008-02
1 10029U 23297WH  26075.70041667  .00000000  00000+0  00000-0 0  9995
2 10029  80.0000  84.0000 0000000   0.0000 174.0000 15.38683946    10
CTC2_L_00066008-03
1 10030U 22898MR  26075.70041667  .00000000  00000+0  00000-0 0  9993
2 10030  80.0000  84.0000 0000000   0.0000 264.0000 15.38683946    12
CTC2_L_00066008-04
1 10031U 24678PR  26075.70041667  .00000000  00000+0  00000-0 0  9992
2 10031  80.0000  84.0000 0000000   0.0000 354.0000 15.38683946    13
CTC2_L_00066009-01
1 10032U 25407XK  26075.70041667  .00000000  00000+0  00000-0 0  9994
2 10032  80.0000  96.0000 0000000   0.0000  96.0000 15.38683946    10
CTC2_L_00066009-02
1 10033U 22625UR  26075.70041667  .00000000  00000+0  00000-0 0  9994
2 10033  80.0000  96.0000 0000000   0.0000 186.0000 15.38683946    11
CTC2_L_00066009-03
1 10034U 26835DG  26075.70041667  .00000000  00000+0  00000-0 0  9992
2 10034  80.0000  96.0000 0000000   0.0000 276.0000 15.38683946    12
CTC2_L_00066009-04
1 10035U 24603LK  26075.70041667  .00000000  00000+0  00000-0 0  9994
2 10035  80.0000  96.0000 0000000   0.0000   6.0000 15.38683946    14
CTC2_L_00066010-01
1 10036U 23599KV  26075.70041667  .00000000  00000+0  00000-0 0  9998
2 10036  80.0000 108.0000 0000000   0.0000 108.0000 15.38683946    12
CTC2_L_00066010-02
1 10037U 26628OK  26075.70041667  .00000000  00000+0  00000-0 0  9995
2 10037  80.0000 108.0000 0000000   0.0000 198.0000 15.38683946    12
CTC2_L_00066010-03
1 10038U 23987RO  26075.70041667  .00000000  00000+0  00000-0 0  9991
2 10038  80.0000 108.0000 0000000   0.0000 288.0000 15.38683946    13
CTC2_L_00066010-04
1 10039U 24680MM  26075.70041667  .00000000  00000+0  00000-0 0  9993
2 10039  80.0000 108.0000 0000000   0.0000  18.0000 15.38683946    15
CTC2_L_00066011-01
1 10040U 25727JW  26075.70041667  .00000000  00000+0  00000-0 0  9998
2 10040  80.0000 120.0000 0000000   0.0000 120.0000 15.38683946    15
CTC2_L_00066011-02
1 10041U 26589TT  26075.70041667  .00000000  00000+0  00000-0 0  9996
2 10041  80.0000 120.0000 0000000   0.0000 210.0000 15.38683946    16
CTC2_L_00066011-03
1 10042U 25085YV  26075.70041667  .00000000  00000+0  00000-0 0  9997
2 10042  80.0000 120.0000 0000000   0.0000 300.0000 15.38683946    17
CTC2_L_00066011-04
1 10043U 24418KN  26075.70041667  .00000000  00000+0  00000-0 0  9997
2 10043  80.0000 120.0000 0000000   0.0000  30.0000 15.38683946    18
CTC2_L_00066012-01
1 10044U 22408MW  26075.70041667  .00000000  00000+0  00000-0 0  9995
2 10044  80.0000 132.0000 0000000   0.0000 132.0000 15.38683946    15
CTC2_L_00066012-02
1 10045U 25779TA  26075.70041667  .00000000  00000+0  00000-0 0  9990
2 10045  80.0000 132.0000 0000000   0.0000 222.0000 15.38683946    16
CTC2_L_00066012-03
1 10046U 24370PR  26075.70041667  .00000000  00000+0  00000-0 0  9997
2 10046  80.0000 132.0000 0000000   0.0000 312.0000 15.38683946    17
CTC2_L_00066012-04
1 10047U 26348YF  26075.70041667  .00000000  00000+0  00000-0 0  9995
2 10047  80.0000 132.0000 0000000   0.0000  42.0000 15.38683946    18
CTC2_L_00066013-01
1 10048U 22853XW  26075.70041667  .00000000  00000+0  00000-0 0  9993
2 10048  80.0000 144.0000 0000000   0.0000 144.0000 15.38683946    15
CTC2_L_00066013-02
1 10049U 22991RG  26075.70041667  .00000000  00000+0  00000-0 0  9997
2 10049  80.0000 144.0000 0000000   0.0000 234.0000 15.38683946    16
CTC2_L_00066013-03
1 10050U 26150HQ  26075.70041667  .00000000  00000+0  00000-0 0  9990
2 10050  80.0000 144.0000 0000000   0.0000 324.0000 15.38683946    18
CTC2_L_00066013-04
1 10051U 26251QD  26075.70041667  .00000000  00000+0  00000-0 0  9993
2 10051  80.0000 144.0000 0000000   0.0000  54.0000 15.38683946    19
CTC2_L_00066014-01
1 10052U 26074VW  26075.70041667  .00000000  00000+0  00000-0 0  9997
2 10052  80.0000 156.0000 0000000   0.0000 156.0000 15.38683946    16
CTC2_L_00066014-02
1 10053U 22993UB  26075.70041667  .00000000  00000+0  00000-0 0  9994
2 10053  80.0000 156.0000 0000000   0.0000 246.0000 15.38683946    17
CTC2_L_00066014-03
1 10054U 24753DC  26075.70041667  .00000000  00000+0  00000-0 0  9991
2 10054  80.0000 156.0000 0000000   0.0000 336.0000 15.38683946    18
CTC2_L_00066014-04
1 10055U 22279WE  26075.70041667  .00000000  00000+0  00000-0 0  9993
2 10055  80.0000 156.0000 0000000   0.0000  66.0000 15.38683946    19
CTC2_L_00066015-01
1 10056U 23244YQ  26075.70041667  .00000000  00000+0  00000-0 0  9997
2 10056  80.0000 168.0000 0000000   0.0000 168.0000 15.38683946    16
CTC2_L_00066015-02
1 10057U 26276NQ  26075.70041667  .00000000  00000+0  00000-0 0  9996
2 10057  80.0000 168.0000 0000000   0.0000 258.0000 15.38683946    17
CTC2_L_00066015-03
1 10058U 26237AG  26075.70041667  .00000000  00000+0  00000-0 0  9994
2 10058  80.0000 168.0000 0000000   0.0000 348.0000 15.38683946    18
CTC2_L_00066015-04
1 10059U 24260KL  26075.70041667  .00000000  00000+0  00000-0 0  9999
2 10059  80.0000 168.0000 0000000   0.0000  78.0000 15.38683946    19
CTC2_L_00066016-01
1 10060U 26495OK  26075.70041667  .00000000  00000+0  00000-0 0  9993
2 10060  80.0000 180.0000 0000000   0.0000 180.0000 15.38683946    19
CTC2_L_00066016-02
1 10061U 23449ID  26075.70041667  .00000000  00000+0  00000-0 0  9990
2 10061  80.0000 180.0000 0000000   0.0000 270.0000 15.38683946    10
